id,location_id,address_1,address_2,city,state_province,postal_code,country
0,0,125 Virginia Ave,,Cumberland,MD,21502,US
1,1,200 Glenn Street,,Suite 301 Cumberland,MD,21502,US
2,2,14701 National Highway,,Suite 5/6 LaVale,MD,21502,US
3,3,3741 Commerce Drive,,Suite 309 Baltimore,MD,21227,US
4,4,318 Sixth Street,,Suite 2 Annapolis,Maryland,21403,US
5,5,12501 Willowbrook Road S.E.,,Cumberland,MD,1745,US
6,6,12503 Willowbrook Road,,S.E. Cumberland,MD,21501-1745,US
7,7,2666 Riva Dr # 130,,Annapolis,MD,21401,US
8,8,153 Mayo Road,,Suite 201 Edgewater,MD,21037,US
9,9,49 Old Solomons Island Road Suite 204,,Annapolis,MD,21401,US
10,10,7310 Ritchie Highway,,Suite 1009 Glen Burnie,MD,21061,US
11,11,251 West St,,Annapolis,MD,21401,US
12,12,122 N Langley Rd,,Suite A/B Glen Burnie,MD,21060,US
13,13,3 Harry S. Truman Parkway HD 24,,Annapolis,MD,21401,US
14,14,1 Harry S. Truman Pkwy,,Suite 101 Annapolis,MD,21401,US
15,15,2635 Riva Road,,Annapolis,MD,21401,US
16,16,80 West St.,,Suite A Annapolis,MD,21401,US
17,17,1460 Ritchie Highway,,Suite 207 Arnold,MD,21012,US
18,18,514 North Crain Highway,,Suite K in Glen Burnie,MD,MD,US
19,19,2600 Solomons Island Rd,,Edgewater,MD,21037,US
20,20,1906 Forest Drive,,Suite 2B Annapolis,MD,21401,US
21,21,400 Crain Highway,,South Glen Burnie,MD,21061,US
22,22,7954 Baltimore Annapolis Blvd Suite 2E,,Glen Burnie,MD,21060,US
23,23,7480 Baltimore Annapolis Blvd.,,Suite 100 Glen Burnie,MD,21061,US
24,24,3741 Commerce Drive,,Suite 309 Baltimore,MD,21227,US
25,25,318 Sixth Street,,Suite 2 Annapolis,Maryland,21403,US
26,26,134 Holiday Court Suite 316,,Annapolis,MD,21401,US
27,27,251 Rowe Boulevard,,Ground Floor Annapolis,MD,21401,US
28,28,1110 Benfield Blvd Suite B,,Millersville,MD,21108,US
29,29,931 Spa Road,,Annapolis,MD,21401,US
30,30,1517 Ritchie Highway,,Suite 201 Arnold,MD,21012,US
31,31,1501 North Dukeland Street,,Baltimore,MD,MD,US
32,32,22 Light Street,,5th Floor Baltimore,MD,21202,US
33,33,3200 Eastern Ave,,Baltimore,MD,21224,US
34,34,2300 Garrison Blvd,,Suite 200 Baltimore,MD,21216,US
35,35,1 N Charles St 5th Floor,,Baltimore,MD,21201,US
36,36,2041 E Fayette Street,,Baltimore,MD,21231,US
37,37,1611 Baker Street,,Baltimore,MD,21217,US
38,38,425 N. Chester Street,,Baltimore,MD,21231,US
39,39,1 North Charles Street,,Suite 1600 Baltimore,MD,21202,US
40,40,26 N Fulton Ave,,Baltimore,MD,21223,US
41,41,4500 Park Heights Ave,,Baltimore,MD,MD,US
42,42,4207 Frederick Ave,,Baltimore,MD,21229,US
43,43,1500 Union Avenue,,Suite 2700 Baltimore,MD,21211,US
44,44,10 West Madison Street,,Suite 11 Baltimore,MD,21201,US
45,45,5900 York Road,,Suite 205 Baltimore,MD,21212,US
46,46,1800 N Charles Street,,Suite 804 Baltimore,MD,21201,US
47,47,2716 Baker Street,,Baltimore,MD,21216,US
48,48,3445 Park Heights Ave.,,Baltimore,MD,21215,US
49,49,32 South Street,,Baltimore,MD,21202,US
50,50,222 East Redwood St,,Baltimore,MD,21202,US
51,51,222 East Redwood St,,Baltimore,MD,21202,US
52,52,222 East Redwood St,,Baltimore,MD,21202,US
53,53,222 East Redwood St,,Baltimore,MD,21202,US
54,54,222 East Redwood St,,Baltimore,MD,21202,US
55,55,3741 Commerce Drive,,Suite 309 Baltimore,MD,21227,US
56,56,2828 Loch Raven Road,,Baltimore,MD,21218,US
57,57,10 West Madison Suite 1,,Baltimore,MD,21201,US
58,58,201 N Charles St,,Suite 1104 Baltimore,MD,21201,US
59,59,318 Sixth Street,,Suite 2 Annapolis,Maryland,21403,US
60,60,1701 North Gay St,,Baltimore,MD,21213,US
61,61,5438 York Road,,Suite 202 Baltimore,MD,21212,US
62,62,210 E Lexington Street,,Suite 104 Baltimore,MD,21202,US
63,63,725 W Lombard Street,,First Floor Baltimore,MD,21201,US
64,64,300 N Gay Street Room 3800,,Baltimore,MD,21202,US
65,65,1228 E. Baltimore Street,,Baltimore,MD,21202,US
66,66,2300 Garrison Boulevard,,Suite S1 Baltimore,MD,21216,US
67,67,200 St. Paul Place,,Suite 2700 Baltimore,MD,21202,US
68,68,2700 N Charles St,,Suite 200 Baltimore,MD,21218,US
69,69,116 North Paca Street,,Baltimore,Maryland,21202,US
70,70,301 N Gay Street,,3rd Floor Baltimore,MD,21202,US
71,71,1401 Severn Street,,Suite A103 Baltimore,MD,21230,US
72,72,6776 Reisterstown Road,,Suite 305 Baltimore,MD,21215,US
73,73,821 N Eutaw Street,,Suites 101 and 201 Baltimore,MD,21201,US
74,74,1212 N. Longwood Street,,Baltimore,MD,21216,US
75,75,2819 Clifton Ave,,Baltimore,MD,21216,US
76,76,2300 Garrison Blvd Suite 220B,,Baltimore,MD,21216,US
77,77,1932 West North Ave,,Baltimore,MD,21217,US
78,78,111 W Mulberry St,,Baltimore,MD,21201,US
79,79,5601 Loch Raven Blvd,,Suite 406 Baltimore,MD,21239,US
80,80,2401 Liberty Heights Avenue Mondawmin Mall,,Suite 302 Baltimore,MD,21215,US
81,81,2200 North Munroe Street,,Baltimore,MD,21217,US
82,82,1401 Severn St 2nd Floor,,Baltimore,MD,21230,US
83,83,1201 66th Street,,Baltimore,MD,21237,US
84,84,5710 Bellona Avenue Suite 102,,Baltimore,MD,21212,US
85,85,8035 Harford Road,,Suite Parkville,MD,21234,US
86,86,3719 East Baltimore Street,,Baltimore,MD,21224,US
87,87,5616 Park Heights Ave,,Baltimore,MD,21215,US
88,88,1 North Charles Street 5th Floor,,Baltimore,MD,21202,US
89,89,2009 Harlem Ave,,Baltimore,MD,21217,US
90,90,1800 N. Charles St,,Suite 404 Baltimore,MD,21201,US
91,91,110 South Paca Street,,3rd Floor Baltimore,MD,21201,US
92,92,701 W Pratt Street,,1st Floor Baltimore,MD,21201,US
93,93,6045 Solomons Island Road.,,Huntingtown,MD,20639,US
94,94,220 S. Fulton Ave,,Baltimore,MD,21223,US
95,95,6401 Dogwood Rd,,Suite 201 Woodlawn,MD,21207,US
96,96,1401 Reisterstown Road,,Suite L-2 Pikesville,MD,21208,US
97,97,6401 York Road 3rd Floor,,Baltimore,MD,21212,US
98,98,11101 McCormick Road Suite 102,,Hunt Valley,MD,21031,US
99,99,1107 North Point Blvd.,,Suite 205 Baltimore,MD,21224,US
100,100,621 Stemmers Run Road,,Suite E Essex,MD,21221,US
101,101,12041 Reisterstown Road,,Reisterstown,MD,21136,US
102,102,20 Crossroads Dr,,Suite 105 Owings Mills,MD,21117,US
103,103,8909 Kelso Drive,,Essex,MD,21221,US
104,104,1110 Eastern Blvd,,Essex,MD,21221,US
105,105,1716 Merritt Blvd,,Dundalk,MD,21222,US
106,106,1716 Merritt Blvd,,Dundalk,MD,21222,US
107,107,1811 Woodlawn Drive,,Woodlawn,MD,21207,US
108,108,3741 Commerce Drive,,Suite 309 Baltimore,MD,21227,US
109,109,9216 Liberty Rd,,Randallstown,MD,21233,US
110,110,318 Sixth Street,,Suite 2 Annapolis,MD,21403,US
111,111,6940 Tudsbury Road,,Windsor Mill,MD,21244,US
112,112,17 Warren Rd,,Suite 25A Pikesville,MD,21163,US
113,113,8600 LaSalle Road Carroll Building,,Suite 212 Towson,MD,21286,US
114,114,9100 Franklin Square Drive,,Suite 204 Baltimore,MD,21237,US
115,115,6718 Holabird Ave,,Dundalk,MD,MD,US
116,116,4411 Frankford Street,,Baltimore,MD,21206,US
117,117,1209 Liberty Road Suite 102,,Eldersburg,MD,21784,US
118,118,200 E Joppa Rd,,Suite 207 Baltimore,MD,21286,US
119,119,8501 LaSalle Road,,Towson,MD,21286,US
120,120,102 W Pennsylvania Ave,,Suite 306 Towson,MD,21204,US
121,121,401 Washington Ave,,Suite 300 Towson,MD,21204,US
122,122,260 Gateway Drive Suite 18A,,Belair,MD,21014,US
123,123,309 Redwood Cir,,Catonsville,MD,21228,US
124,124,3009 Chesapeake Beach Road,,Chesapeake,MD,20732,US
125,125,5550 Mackall Road,,St. Leonard,MD,20685,US
126,126,100 Jibsail Drive,,Prince Frederick,MD,20678,US
127,127,440 Main Street,,Prince Frederick,MD,20678,US
128,128,280 Stafford Road,,Barstow,MD,20610,US
129,129,3819 Harbor Road Suite 103,,Chesapeake Beach,MD,20732,US
130,130,20 Appeal Lane,,Lusby,MD,20657,US
131,131,975 Solomons Island Road North,,Prince Frederick,MD,20678,US
132,132,PO Box 980,,Prince Frederick,MD,20678,US
133,133,PO Box 1180,,Prince Frederick,MD,20678,US
134,134,850 Costley Way,,Prince Frederick,MD,20678,US
135,135,6045 Solomons Island Road,,Huntingtown,MD,20639,US
136,136,P. O. Box 1842,,Prince Frederick,Maryland,20678,US
137,137,975 Solomons Island Road North,,Prince Frederick,MD,20678,US
138,138,200 Duke Street,,Prince Frederick,MD,20678,US
139,139,105 Kingsberry Court,,St. Leonard,MD,20685,US
140,140,3695 Hallowing Point Road Suite 6,,Prince Frederick,MD,20678,US
141,141,East Mount Harmony Road,,Owings,MD,20736,US
142,142,318 Sixth Street,,Suite 2 Annapolis,Maryland,21403,US
143,143,200 Duke St.,,Prince Frederick,MD,20678,US
144,144,15364 Prince Frederick Road (Rt. 231),,Hughesville,MD,20637,US
145,145,200 Duke St,,Suite 1100 Prince Frederick,MD,20678,US
146,146,100 Community Place,,Crownsville,MD,21032,US
147,147,22161 Lexwood Dr Room 2,,Lexington Park,MD,20653,US
148,148,230 W Dares Beach Rd,,Prince Frederick,MD,20678,US
149,149,4311 Randle Avenue,,Chesapeake Beach,MD,20732,US
150,150,10290 HG Trueman Road,,Lusby,MD,20657,US
151,151,10290 HG Trueman Road,,Solomons,MD,20688,US
152,152,10290 H.G. Trueman Road,,Lusby,MD,20657,US
153,153,200 Duke Street,,Suite 1400 Prince Frederick,MD,20678,US
154,154,21795-F N. Shangri-La Drive,,Lexington Park,MD,20653,US
155,155,8371 Leonardtown Road,,Hughesville,MD,20637,US
156,156,8823 Dayton Avenue,,North Beach,MD,20714,US
157,157,440 Main Street,,Prince Frederick,MD,20678,US
158,158,300 Market Street,,Suite 201 Denton,MD,21629,US
159,159,114 Market Street,,Suite 207 Denton,MD,21629,US
160,160,318 Sixth Street,,Suite 2 Annapolis,MD,21403,US
161,161,106 N. Washington Street,,Suite 101 Easton,MD,21601,US
162,162,28578 Mary's Court Suite 1,,Easton,MD,21601,US
163,163,8626 Brooks Drive,,Suite 102 Easton,MD,21601,US
164,164,14376 Benedictine Lane,,Ridgely,MD,21660,US
165,165,Kent,,Talbot,Caroline,transportation.,US
166,166,224 N Center Street,,2nd Floor Westminster,MD,21157,US
167,167,Carrol Community College 255 Clifton Blvd.,,Suite 301 Westminster,MD,21157,US
168,168,224 N. Center St.,,2nd Floor Westminster,MD,21157,US
169,169,63 East Main Street,,Suite 8 & 9 Westminster,MD,21157,US
170,170,318 Sixth Street,,Suite 2 Annapolis,MD,21403,US
171,171,1004 Littlestown Pike,,Suite 9 Westminster,MD,21157,US
172,172,101 N Court Street,,Ground Floor (Carroll County Multi- Service Center) Westminster,MD,21157,US
173,173,4670 Bicknell Rd.,,Marbury,MD,20658,US
174,174,255 Clifton Blvd,,Westminster,MD,21157,US
175,175,1209 Liberty Road Suite 102,,Eldersburg,MD,21784,US
176,176,401 Bow Street,,Elkton,MD,21921,US
177,177,401 North Street,,Elkton,MD,21921,US
178,178,401 Bow Street,,Elkton,MD,21921,US
179,179,168 West Main Street,,Elkton,MD,21921,US
180,180,318 Sixth Street,,Suite 2 Annapolis,MD,21403,US
181,181,401 North Street,,Elkton,MD,21921,US
182,182,Gateway Plaza 3971 St. Charles Parkway,,Waldorf,MD,MD,US
183,183,3065 Old Washington Rd.,,Waldorf,MD,20601,US
184,184,2670 Crain Hwy,,Waldorf,MD,20601,US
185,185,3475 Leonardtown Road,,Suite 206 Waldorf,MD,20601,US
186,186,3000 Huntington Circle,,Waldorf,MD,20602,US
187,187,3000 Huntington Circle,,Waldorf,MD,20602,US
188,188,4545 Crain Highway,,White Plains,MD,20695,US
189,189,4545 Crain Highway,,White Plains,MD,20695,US
190,190,8190 Port Tobacco Rd.,,Port Tobacco,MD,20677,US
191,191,400 Potomac Street,,La Plata,MD,20646,US
192,192,10250 La Plata Road (Route 488),,La Plata,MD,20646,US
193,193,8730 Mitchell Road,,La Plata,MD,20646-0910,US
194,194,4545 Crain Highway,,White Plains,MD,20695,US
195,195,112 East Charles Street,,La Plata,MD,20646,US
196,196,8700 Ironsides Rd.,,Nanjemoy,MD,20662,US
197,197,St. Charles Business Park 11 Industrial Park Dr.,,Waldorf,MD,20601,US
198,198,2495 Crain Highway,,Waldorf,MD,20601,US
199,199,7450 Albert Road,,Brandywine,MD,20613,US
200,200,318 Sixth Street,,Suite 2 Annapolis,MD,21403,US
201,201,3444 Rockefeller Court,,Waldorf,MD,20602,US
202,202,9505 Crain Hwy (US 301 south),,Bel Alton,MD,20611,US
203,203,3 Port Tobacco Rd.,,La Plata,MD,20646,US
204,204,15364 Prince Frederick Road (Rt. 231),,Hughesville,MD,20637,US
205,205,2 Garrett Avenue,,La Plata,MD,20646,US
206,206,50 Village St.,,Waldorf,MD,20602,US
207,207,3225 Ruth B. Swann Dr.,,Indian Head,MD,20640,US
208,208,10405 O'Donnell Place,,Waldorf,MD,20603,US
209,209,101 Catalpa Drive,,Suite 103 La Plata,MD,20646,US
210,210,201 St. Mary's Ave.,,La Plata,MD,20646,US
211,211,5606 Dower House Rd. Upper Marlboro,,MD,20772,20772,US
212,212,P.O. Box 25,,Lexington Park,MD,20653,US
213,213,P.O. Box 823,,Bryans Road,MD,20866,US
214,214,401 E Smallwood Drive,,Waldorf,MD,20602,US
215,215,3000 Huntington Circle,,Waldorf,MD,20602,US
216,216,7 Post Office Road Suite D,,Waldorf,MD,20602,US
217,217,200 Duke Street,,Suite 1400 Prince Frederick,MD,20678,US
218,218,8371 Old Leonardtown Rd.,,Hughesville,MD,MD,US
219,219,8371 Leonardtown Road,,Hughesville,MD,20637,US
220,220,30 Mattingly Ave,,Indian Head,MD,20640,US
221,221,15848 Rock Point Road,,Newburg,MD,20664,US
222,222,3093 Beverly Ln. Unit A,,Cambridge,MD,21613,US
223,223,3 Cedar Street,,Cambridge,MD,21613,US
224,224,627 Race Street,,Cambridge,MD,21613,US
225,225,318 Sixth Street,,Suite 2 Annapolis,MD,21403,US
226,226,28578 Mary's Court Suite 1,,Easton,MD,21601,US
227,227,8626 Brooks Drive,,Suite 102 Easton,MD,21601,US
228,228,627 Race Street,,Cambridge,MD,21613,US
229,229,216 Abrecht Place,,Frederick,MD,21701,US
230,230,315 W. Patrick Street,,Frederick,MD,21701,US
231,231,350 Montevue Lane,,Frederick,MD,21702,US
232,232,604 Solarex Court,,Suite 201 Frederick,MD,21703,US
233,233,13218 Brook Lane Drive,,Hagerstown,MD,21742,US
234,234,112 E Main Street,,1st Floor Thurmont,MD,21788,US
235,235,502 E. Main Street,,Emmitsburg,MD,21727,US
236,236,340 Park Avenue,,Frederick,MD,21701,US
237,237,191 S. East Street,,Frederick,MD,21701,US
238,238,226 S. Jefferson Street,,Frederick,MD,21701,US
239,239,100 W. Patrick Street,,Frederick,MD,21701,US
240,240,502 E. Main Street,,Emmitsburg,MD,21727,US
241,241,Rupp House 35 E. Church Street,,Frederick,MD,21701,US
242,242,9400 Livingston Road,,Fort Washington,MD,20722,US
243,243,1520 Freedman Drive,,Fort Detrick,MD,21702,US
244,244,2 E. Church Street,,Frederick,MD,21701,US
245,245,5430 Spectrum Drive,,Frederick,MD,21703,US
246,246,100 E. All Saints Street,,Frederick,MD,21701,US
247,247,100 E. All Saints Street,,Frederick,MD,21701,US
248,248,12 E. Church Street,,Frederick,MD,21701,US
249,249,5716-C Industry Lane,,Frederick,MD,21704,US
250,250,10 N. Jefferson St. Suite 203,,Frederick,MD,21701,US
251,251,318 Sixth Street,,Suite 2 Annapolis,MD,21403,US
252,252,22 S. Market Street Ste. 11,,Frederick,MD,21701,US
253,253,915 Toll House Ave,,Suite 102 Frederick,MD,21701,US
254,254,100 E All Saints Street Suite 200,,Frederick,MD,21701,US
255,255,7101 Guilford Drive Suite 100,,Frederick,MD,21704,US
256,256,226 South Jefferson St.,,Frederick,MD,21701,US
257,257,22 South Market St Suite 8,,Frederick,MD,21701,US
258,258,5 Hillcrest Drive,,Suite B200 Frederick,MD,21703,US
259,259,5 Hillcrest Drive,,Suite B200 Frederick,MD,21703,US
260,260,4 E. Church Street,,Frederick,MD,21701,US
261,261,P.O. Box 4233,,Frederick,MD,21705,US
262,262,331 W. Patrick Street,,Frederick,MD,21701,US
263,263,31 W. Main Street,,Middletown,MD,21769,US
264,264,22 S. Market Street Suite 5,,Frederick,MD,21701,US
265,265,629 N. Market Street,,Frederick,MD,21701,US
266,266,8420 Gas House Pike Ste. EE,,Frederick,MD,21701,US
267,267,223 W. 5th Street,,Frederick,MD,21701,US
268,268,8 W. 2nd Street,,Frederick,MD,21701,US
269,269,420 E Patrick St,,Suite 100 Frederick,MD,21701,US
270,270,16840 S. Seton Avenue,,Emmitsburg,MD,21727,US
271,271,306 W. Patrick Street,,Frederick,MD,Entrance),US
272,272,27 DeGrange St.,,Frederick,MD,21701,US
273,273,100 W. Patrick Street Rm. 2120,,Frederick,MD,21701,US
274,274,111 East Church Street,,Frederick,MD,21701,US
275,275,116 Record Street,,Frederick,MD,21701,US
276,276,118 North Market Street Third Floor,,Frederick,MD,21701,US
277,277,1025 Memorial Drive,,Room 214 Oakland,MD,21550,US
278,278,318 Sixth Street,,Suite 2 Annapolis,MD,21403,US
279,279,23789 Garrett Highway Suite 7,,McHenry,MD,21541,US
280,280,102 N. Main Street,,Suite 201 Bel Air,MD,21014,US
281,281,315 Dawson Court,,Oakland,MD,21550,US
282,282,882 Memorial Drive,,Oakland,MD,21550,US
283,283,221 South Third Street,,Oakland,MD,21550,US
284,284,4 North Avenue,,Suite 306 Bel Air,MD,21014,US
285,285,219 W. Bel Air Ave Suite 2,,Aberdeen,MD,21001,US
286,286,1321 Woodbridge Station Way,,Ste. B Edgewood,MD,21040,US
287,287,3105 Emmorton Road,,Suite 2 Abingdon,MD,21009,US
288,288,Serves Bel Air Jarrettsville Fallston Churchville Street Whiteford Pylesville Abingdon,,Darlington,Delta,Delta,US
289,289,120 South Hays Street,,Bel Air,MD,21014,US
290,290,6201 Belcrest Road,,Hyattsville,MD,20782,US
291,291,15 S. Main Street,,Suite 106 Bel Air,MD,21014,US
292,292,53 E. Bel Air Avenue,,Apt 3 Aberdeen,MD,21001,US
293,293,626 Towne Center Drive,,Suite 301 Joppa,MD,21085,US
294,294,318 Sixth Street,,Suite 2 Annapolis,MD,21403,US
295,295,301 Mayberry Drive,,Suite 104 Aberdeen,MD,21001-4125,US
296,296,Harford County Circuit Court,,2nd Floor 20 W. Courtland Street Bel Air,MD,21014,US
297,297,300 Rear Seneca Avenue,,Havre de Grace,MD,21078,US
298,298,780 West Bel Air Avenue,,Suite B Aberdeen,MD,21001,US
299,299,1010 Wayne Ave #310,,Silver Spring,MD,20910,US
300,300,900 A South Main Street,,Suite 105 Bel Air,MD,21014,US
301,301,5570 Sterrett Place,,Suite 205 Columbia,MD,21044,US
302,302,10630 Little Patuxent Parkway,,Suite 209 Columbia,MD,21044,US
303,303,318 Sixth Street,,Suite 2 Annapolis,MD,21403,US
304,304,8930 Stanford Road,,Columbia,MD,21046,US
305,305,8930 Stanford Blvd,,Columbia,MD,21045,US
306,306,6751 Columbia Gateway Drive,,Suite 200 Columbia,MD,21046,US
307,307,9900 Washington Blvd N,,Laurel,MD,20723,US
308,308,8388 Court Ave,,Ellicott City,MD,21043,US
309,309,10630 Little Patuxent Parkway,,Suite 209 Columbia,MD,21044,US
310,310,10901 Little Patuxent Parkway  Clark Library 145,,Columbia,Maryland,3197,US
311,311,8930 Stanford Blvd,,Suite M100 Columbia,MD,21045,US
312,312,9030 MD-108,,Columbia,MD,21045,US
313,313,516 Washington Street,,Suite 4 Chestertown,MD,21620,US
314,314,318 Sixth Street,,Suite 2 Annapolis,MD,21403,US
315,315,106 N. Washington Street,,Suite 101 Easton,MD,21601,US
316,316,28578 Mary's Court Suite 1,,Easton,MD,21601,US
317,317,8626 Brooks Drive,,Suite 102 Easton,MD,21601,US
318,318,Kent,,Talbot,Caroline,Caroline,US
319,319,7500 Greenway Center Dr #500,,Greenbelt,MD,MD,US
320,320,1400 Spring St. Suite 100,,Silver Spring,MD,20910,US
321,321,7728 Woodmont Ave,,Bethesda,MD,20814,US
322,322,5033 Wilson Ln.,,Bethesda,MD,20814,US
323,323,4848 Cordell Ave.,,Bethesda,MD,20814,US
324,324,7611 Clarendon Rd,,Bethesda,MD,20814,US
325,325,2699 Linden Ln.,,Silver Spring,MD,20910,US
326,326,12247 Georgia Ave.,,Silver Spring,MD,20910,US
327,327,12247 Georgia Ave.,,Silver Spring,MD,20910,US
328,328,12247 Georgia Ave,,Silver Spring,MD,20910,US
329,329,8011 Old Georgetown,,Bethesda,MD,20814,US
330,330,14105 New Hampshire Ave.,,Silver Spring,MD,20910,US
331,331,4805 Edgemoor Lane 2nd Floor,,Bethesda,Maryland,20814,US
332,332,1301 Pickard Dr.,,Rockville,MD,20850,US
333,333,401 Hungerford Drive 1st Floor,,Rockville,MD,20850,US
334,334,12900 Middlebrook Rd.,,Germantown,MD,20874,US
335,335,1301 Piccard Dr.,,Rockville,MD,20850,US
336,336,8818 Georgia Ave.,,Silver Spring,MD,20910,US
337,337,251 North Stonestreet Ave.,,Rockville,MD,20850,US
338,338,1320 Fenwick Lane,,Suite 800 Silver Spring,MD,20910,US
339,339,622 North Homers Ln.,,Bethesda,MD,20852,US
340,340,318 Sixth Street,,Suite 2 Annapolis,MD,21403,US
341,341,Silver Spring District Court. 1st Floor 8552 2nd Ave,,Silver Spring,MD,20910,US
342,342,751 Twinbrook Pkwy.,,Rockville,MD,20850,US
343,343,8210 Colonial Ln.,,Silver Spring,MD,20910,US
344,344,5834 Riggs Rd.,,Laytonsville,MD,MD,US
345,345,21 Maryland Ave.,,Rockville,MD,20850,US
346,346,51 Monroe Street PE-20,,Rockville,MD,20850,US
347,347,7871 Beechcraft Avenue,,Suite 200 Gaithersburg,MD,20879,US
348,348,8552 Second Avenue 1st Floor,,Silver Spring,MD,20910,US
349,349,255 Rockville Pike Suite #145,,Rockville,MD,20850,US
350,350,401 Hungerford Drive,,5th Floor Rockville,Maryland,20850,US
351,351,12900 Middlebrook Road,,Germantown,MD,20874,US
352,352,101 Chestnut Street Suite 110,,Gaithersburg,MD,20877,US
353,353,101 Chestnut St #110,,Gaithersburg,MD,20877,US
354,354,101 Chestnut St #110,,Gaithersburg,MD,20877,US
355,355,7500 Pearl St.,,Gaithersburg,MD,20814,US
356,356,8210 Colonial Lane,,Silver Spring,MD,20910,US
357,357,8219A Colonial Lane,,Silver Spring,MD,20910,US
358,358,201 E. Diamond Ave. 3rd Floor,,Gaithersburg,MD,20814,US
359,359,700 King Farm Blvd. Suite 100,,Rockville,MD,20850,US
360,360,1010 Wayne Ave,,Suite 310 Silver Spring,MD,20910,US
361,361,100 Welsh Park Drive Building 2,,Rockville,MD,20850,US
362,362,7981 Eastern Avenue,,Suite C-5 Silver Spring,MD,20910,US
363,363,8 Russell Avenue,,Suite 107 Gaithersburg,MD,20877,US
364,364,11160 Veirs Mill Rd #100,,Wheaton,MD,20902,US
365,365,4333 Northview Drive,,Bowie,MD,20716,US
366,366,9314 Piscataway Road,,Clinton,MD,20735,US
367,367,425 Brightseat Rd.,,Landover,MD,20785,US
368,368,14201 Laurel Park Drive,,Suite 226 Laurel,MD,20707,US
369,369,2614 Kenhill Dr,,Bowie,MD,20716,US
370,370,7902 Old Branch Avenue,,Suite 109 Clinton,MD,20735,US
371,371,8151 15th Ave.,,Hyattsville,MD,20783,US
372,372,925 Brightseat Rd.,,Landover,MD,20785,US
373,373,14070 Brandywine Rd.,,Brandywine,MD,20613,US
374,374,508 Hadrian Lane,,Fort Washington,MD,20744,US
375,375,425 2ND ST,,NW Washington,DC,20001,US
376,376,6505 Belcrest Rd.,,Hyattsville,MD,20782,US
377,377,4235 28th Avenue,,Temple Hills,MD,20748,US
378,378,308 Gorman Avenue,,Laurel,MD,20707,US
379,379,6475 New Hampshire Avenue,,Suite 610 Hyattsville,MD,20783,US
380,380,6196 Oxon Hill Road,,Suite 340 Oxon Hill,MD,20745,US
381,381,308 Gorman Ave,,Laurel,MD,20707,US
382,382,318 Sixth Street,,Suite 2 Annapolis,MD,21403,US
383,383,14300 Gallant Fox Lane,,Suite 107 Bowie,MD,20715,US
384,384,5311 Water St,,Suite D Upper Marlboro,MD,20772,US
385,385,3698 Old Silver Hill Rd,,Suitland,MD,20746,US
386,386,13312 Laurel Bowie Rd,,Laurel,MD,20720,US
387,387,5814 Baltimore Ave,,Hyattsville,MD,20737,US
388,388,311 Laurel Ave,,Laurel,MD,20707,US
389,389,312 Marshall Avenue,,Suite 604 Laurel,Maryland,20707,US
390,390,1001 Prince George's Blvd,,Suite 750 Upper Marlboro,MD,20774,US
391,391,14000 Jericho Park Rd,,Bowie,MD,20715,US
392,392,4990 Rhode Island Avenue,,Suite 101 Hyattsville,MD,20781,US
393,393,4235 28th Avenue,,6th Floor Temple Hills,MD,20748,US
394,394,6180 Old Central Ave.,,Capitol Heights,MD,20743,US
395,395,6525 Belcrest Rd.,,Hyattsville,MD,20783,US
396,396,1835 University Blvd E # 220,,Hyattsville,MD,20783,US
397,397,1835 University Blvd,,Suite 220 Hyattsville,MD,20783,US
398,398,1801 McCormick Drive,,1st floor Largo,Maryland,20774,US
399,399,14741 Governor Oden Bowie Drive,,Suite L202 Upper Marlboro,MD,20772,US
400,400,14701 Governor Oden Bowie Drive,,Suite J3304 Upper Marlboro,Maryland,20772,US
401,401,525 Eastern Avenue 2nd Floor,,Capitol Heights,MD,20743,US
402,402,2101 Kent Village Dr,,Landover,MD,20785,US
403,403,5207 42nd Place,,Hyattsville,MD,20781,US
404,404,6525 Belcrest Rd #526,,Hyattsville,MD,20781,US
405,405,3001 Hospital Drive,,Cheverly,MD,20785,US
406,406,14435 Cherry Lane Court,,Suite 206 Laurel,MD,20707,US
407,407,108 East Main Street,,Salisbury,MD,21801,US
408,408,1400 Doewood Lane,,Capitol Heights,MD,MD,US
409,409,650 W Baltimore St.,,Baltimore,MD,21201,US
410,410,4400 Stamp Road,,Suite 208B Temple Hills,MD,20748,US
411,411,101 Log Canoe Circle Suite C-3,,Stevensville,MD,21666,US
412,412,207 N. Liberty Street,,Suite B Centreville,MD,21617,US
413,413,103 N. Linden Street,,Sudlersville,MD,21668,US
414,414,206 Del Rhodes Ave,,Suite 203 Queenstown,MD,21658,US
415,415,318 Sixth Street,,Suite 2 Annapolis,MD,21403,US
416,416,106 N. Washington Street,,Suite 101 Easton,MD,21601,US
417,417,120 Broadway,,Suite 11 Centreville,MD,21617,US
418,418,28578 Mary's Court Suite 1,,Easton,MD,21601,US
419,419,8626 Brooks Drive,,Suite 102 Easton,MD,21601,US
420,420,125 Comet Drive,,Centreville,MD,21617,US
421,421,206 N. Commerce Street,,Centreville,MD,21617,US
422,422,11724 Somerset Ave,,Princess Anne,MD,21853,US
423,423,318 Sixth Street,,Suite 2 Annapolis,MD,21403,US
424,424,207 Maryland Ave Suite #5,,Salisbury,MD,21801,US
425,425,31901 Tri-County Way Suite 111,,Salisbury,MD,21804,US
426,426,30632 Hampden Ave,,Princess Anne,MD,21853,US
427,427,12409 Loretta Road,,Princess Anne,MD,21853,US
428,428,8928 Sign Post Road,,Westover,MD,21871,US
429,429,24930 Old Three Notch Road,,Hollywood,MD,20636,US
430,430,318 Sixth Street,,Suite 2 Annapolis,MD,21403,US
431,431,23110 Leonard Hall Dr,,Joseph D. Carter Building Leonardtown,MD,20650,US
432,432,200 Duke Street,,Suite 1400 Prince Frederick,MD,20678,US
433,433,23115 Leonard Hall Drive,,Leonardtown,MD,20650,US
434,434,12110 Leonard Hall Drive,,Leonardtown,MD,20650,US
435,435,41660 Court House Dr,,Leonardtown,MD,20650,US
436,436,505 Dutchmans Lane,,B-2 Easton,MD,21601,US
437,437,8221 Teal Drive,,Suite 202 Easton,MD,21601,US
438,438,20 Bay Street,,Easton,MD,21601,US
439,439,342C North Aurora Street,,Easton,MD,21601,US
440,440,933 S. Talbot St.,,St Michaels,MD,21663,US
441,441,215 Bay Street Suite 1,,Easton,MD,21601,US
442,442,318 Sixth Street,,Suite 2 Annapolis,MD,21403,US
443,443,106 N. Washington Street,,Suite 101 Easton,MD,21601,US
444,444,301 Bay Street,,Suite 302 Easton,MD,21601,US
445,445,301 Bay Street,,Suite 302 Easton,MD,21601,US
446,446,28578 Mary's Court Suite 1,,Easton,MD,21601,US
447,447,8626 Brooks Drive,,Suite 102 Easton,MD,21601,US
448,448,120 North Auroroa St,,Easton,MD,21601,US
449,449,219 S Washington Street,,Easton,MD,21601,US
450,450,29533 Canvasback Drive,,Easton,MD,21601,US
451,451,301 Bay Street,,Suite 301 Easton,MD,21601,US
452,452,301 Bay Street,,Unit 5 Easton,MD,21601,US
453,453,107 Goldsborough Street,,Easton,MD,21601,US
454,454,107 Goldsborough Street,,Easton,MD,21601,US
455,455,8 Goldsborough St,,Suite 203 Easton MD,21601,21601,US
456,456,Kent,,Talbot,Caroline,county,US
457,457,13218 Brook Lane Drive,,Hagerstown,MD,21742,US
458,458,117 Summit Avenue,,Hagerstown,MD,21740,US
459,459,318 Sixth Street,,Suite 2 Annapolis,MD,21403,US
460,460,25 Summit Avenue,,Hagerstown,MD,21740,US
461,461,324 East Antietam St Suite 301,,Hagerstown,MD,21740,US
462,462,140 W Franklin Street,,Suite 300 Hagerstown,MD,21740,US
463,463,580 Northern Ave Suite D,,Hagerstown,MD,21742,US
464,464,5 Public Square,,Suite 204 Hagerstown,Maryland,21740,US
465,465,339 E. Antietam Street Suite #5,,Hagerstown,MD,21740,US
466,466,13114 Pennsylvania Ave,,Hagerstown,MD,21742,US
467,467,14 N Potomac Street,,Suite 100 Hagerstown,MD,21740,US
468,468,129 Broad Street,,Salisbury,MD,21801,US
469,469,318 Sixth Street,,Suite 2 Annapolis,MD,21403,US
470,470,28 East State St,,Delmar,MD,21875,US
471,471,812 Boundary Rd,,Salisbury,MD,21801,US
472,472,207 Maryland Ave Suite #5,,Salisbury,MD,21801,US
473,473,31901 Tri-County Way Suite 111,,Salisbury,MD,21804,US
474,474,326 Barclay Street,,Salisbury,MD,21801,US
475,475,520 Snow Hill,,Salisbury,MD,21801,US
476,476,31901 Tri-County Way Suite 112,,Salisbury,MD,21804,US
477,477,201 Baptist Street Suite 27,,Salisbury,MD,21801,US
478,478,108 East Main Street,,Salisbury,MD,21801,US
479,479,12747 Old Bridge Road,,Ocean City,MD,21842,US
480,480,12747 Old Bridge Road,,Ocean City,MD,21842,US
481,481,318 Sixth Street,,Suite 2 Annapolis,MD,21403,US
482,482,207 Maryland Ave Suite #5,,Salisbury,MD,21801,US
483,483,31901 Tri-County Way Suite 111,,Salisbury,MD,21804,US
484,484,10026 Old Ocean City Blvd.,,Suite 5 Berlin,MD,21811,US
485,485,120 Bayside,,Ocean City,MD,21842,US
486,486,6352 Worcester Hwy,,Newark,MD,21841,US
487,487,814 4th Street,,Pocomoke,MD,21851,US
488,488,1001 Lake Street,,Salisbury,MD,21801,US
489,489,299 Commerce Street,,Snow Hill,MD,21863,US
490,490,1118 Ward. St.,,Baltimore,MD,MD,US
491,491,1114 N. Mount St.,,Baltimore,MD,MD,US
492,492,1228 E. Baltimore St.,,Baltimore,MD,MD,US
493,493,11 W. Clement. St,,Baltimore,MD,MD,US
494,494,1114 N. Calvert St.,,Baltimore,MD,MD,US
495,495,1515 W. North Ave.,,Baltimore,MD,MD,US
496,496,2828 Loch Raven Road,,Baltimore,MD,MD,US
497,497,1515 W. North Ave.,,Baltimore,MD,MD,US
498,498,1029 E. Baltimore St.,,Baltimore,MD,MD,US
499,499,435 E. 25th St.,,Baltimore,MD,MD,US
500,500,201 E. Baltimore St. 7th Floor,,Baltimore,MD,MD,US
501,501,620 N. Caroline St.,,Baltimore,MD,MD,US
502,502,101 W. 23rd St.,,Baltimore,MD,MD,US
503,503,204 E. 25th St.,,Baltimore,MD,MD,US
504,504,701 S. Charles St.,,Baltimore,MD,MD,US
505,505,301 N. High St.,,Baltimore,MD,MD,US
506,506,4 N. Central Ave.,,Baltimore,MD,MD,US
507,507,17 W. Franklin St.,,Baltimore,MD,MD,US
508,508,620 N. Caroline St.,,Baltimore,MD,MD,US
509,509,725 Fallsway,,Baltimore,MD,MD,US
510,510,620 Fallsway,,Baltimore,MD,MD,US
511,511,400 S. Bond St.,,Baltimore,MD,MD,US
512,512,421 Fallsway,,Baltimore,MD,MD,US
513,513,1515 W. North Ave.,,Baltimore,MD,MD,US
514,514,3313 Oakfield Ave.,,Baltimore,MD,MD,US
515,515,620 N. Caroline St.,,Baltimore,MD,MD,US
516,516,325 E. 25th St.,,Baltimore,MD,MD,US
517,517,1800 N. Charles St. Suite 310,,Baltimore,MD,MD,US
518,518,2525 E. Madison St.,,Baltimore,MD,MD,US
519,519,2000 N. Broadway,,Baltimore,MD,MD,US
520,520,10 N. Pulaski St.,,Baltimore,MD,MD,US
